OBJECT_NAME,OBJECT_ID,EPOCH,MEAN_MOTION,ECCENTRICITY,INCLINATION,RA_OF_ASC_NODE,ARG_OF_PERICENTER,MEAN_ANOMALY,EPHEMERIS_TYPE,CLASSIFICATION_TYPE,NORAD_CAT_ID,ELEMENT_SET_NO,REV_AT_EPOCH,BSTAR,MEAN_MOTION_DOT,MEAN_MOTION_DDOT
COSMOS 2507 (RODNIK-S 13),2015-050A,2026-06-28T15:53:54.337344,12.42927380,.00096947,82.4928,72.5259,331.9993,28.0564,0,U,40920,999,48828,.11305112E-2,.166E-5,0
COSMOS 2508 (RODNIK-S 14),2015-050B,2026-06-28T14:49:17.685120,12.42914587,.00147048,82.4880,71.0546,3.0096,357.1069,0,U,40921,999,48826,.41993106E-3,.68E-6,0
COSMOS 2509 (RODNIK-S 15),2015-050C,2026-06-28T15:18:59.311872,12.42884019,.00153542,82.4889,71.1452,19.4736,340.6927,0,U,40922,999,48830,.3023924E-3,.52E-6,0
LINGQIAO VIDEO A,2015-057B,2026-06-28T14:30:21.263328,14.77405909,.00153726,97.6617,173.8430,229.6257,130.3613,0,U,40959,999,57709,.67870884E-4,.435E-5,0
LINGQIAO VIDEO B,2015-057C,2026-06-28T15:33:06.039648,14.77512766,.00155237,97.6583,175.0451,229.4750,130.5110,0,U,40960,999,57714,.57581404E-4,.363E-5,0
JILIN-1,2015-057D,2026-06-28T14:07:44.427360,14.78177511,.00157711,97.6509,178.3894,222.4043,137.5951,0,U,40961,999,57729,.11348454E-3,.775E-5,0
FOX-1A (AO-85),2015-058D,2026-06-28T13:17:33.545472,14.91015179,.01311451,64.7745,243.6587,52.1698,309.1198,0,U,40967,999,11526,.17661993E-3,.1884E-4,0
SINOD-D 1,2015-058E,2026-06-28T13:50:40.363584,14.95968824,.01198131,64.7737,223.2432,48.5852,312.5483,0,U,40968,999,11836,.23786569E-3,.2906E-4,0
ELEKTRO-L 2,2015-074A,2026-06-27T22:42:11.116800,1.00271140,.000068,6.7214,70.3918,283.3260,248.3287,0,U,41105,999,3861,0,-.113E-5,0
DAMPE,2015-078A,2026-06-28T14:35:05.828640,15.30814184,.00132869,97.4555,185.1308,41.6509,318.5741,0,U,41173,999,58629,.47680956E-4,.1345E-4,0
ORBCOMM FM110,2015-081D,2026-06-28T14:37:39.500544,14.58896710,.00027007,47.0030,307.4350,144.0913,216.0155,0,U,41182,999,55929,.16798409E-3,.623E-5,0
ORBCOMM FM112,2015-081F,2026-06-28T12:16:03.221760,14.58915585,.00041099,46.9973,216.6987,262.3514,97.6905,0,U,41184,999,56060,.1044105E-3,.323E-5,0
ORBCOMM FM113,2015-081G,2026-06-28T11:42:55.607904,14.58867726,.00026128,46.9990,217.1892,263.3683,96.6906,0,U,41185,999,56058,.94311828E-4,.275E-5,0
ORBCOMM FM108,2015-081J,2026-06-28T14:05:50.414784,14.58887238,.00032001,47.0044,128.2965,263.8893,96.1628,0,U,41187,999,56174,.1448306E-3,.514E-5,0
ORBCOMM FM117,2015-081K,2026-06-28T00:07:20.004960,14.58873535,.00036785,47.0003,129.6801,265.3235,94.7230,0,U,41188,999,56170,.11047673E-3,.351E-5,0
ORBCOMM FM116,2015-081L,2026-06-28T12:47:54.787200,14.58894970,.00007827,47.0008,216.9738,170.6855,189.4045,0,U,41189,999,56059,.1083952E-3,.342E-5,0
HORYU-4,2016-012D,2026-06-28T14:02:25.672704,16.12369922,.00095773,30.9814,354.5243,338.1481,21.8776,0,U,41340,999,57264,.11193622E-2,.1302903E-1,.11102531E-2
ZIYUAN 3-02 (ZY 3-02),2016-033A,2026-06-28T15:14:20.911200,15.21284570,.00125797,97.3840,255.1889,246.3421,113.6495,0,U,41556,999,55972,.21888686E-3,.4834E-4,0
CARTOSAT-2C,2016-040A,2026-06-28T15:39:55.472832,15.19280763,.0010431,97.4480,239.4734,96.3347,263.9076,0,U,41599,999,55545,.2839112E-3,.593E-4,0
LAPAN-A3,2016-040E,2026-06-28T14:42:49.052736,15.33176772,.00094581,97.1487,175.3836,345.3903,14.7065,0,U,41603,999,55656,.99568766E-4,.312E-4,0
GAOFEN-3,2016-049A,2026-06-28T14:25:02.562240,14.42216874,.00016164,98.4009,187.2142,95.7119,264.4256,0,U,41727,999,52029,.24970685E-4,.39E-6,0
CAS-2T & KS-1Q,2016-066G,2026-06-28T11:03:19.414368,14.44729722,.0342884,98.3821,255.0681,95.3928,268.6474,0,U,41847,999,50642,.22985217E-3,.1594E-4,0
YUNHAI-1 01,2016-068A,2026-06-28T14:55:20.629920,14.32430904,.00055389,98.5841,190.5205,27.8907,332.2572,0,U,41857,999,50346,.15235275E-3,.368E-5,0
RESOURCESAT-2A,2016-074A,2026-06-28T14:43:24.037824,14.21605871,.00031687,98.7532,253.0247,61.3252,298.8244,0,U,41877,999,49592,.32781612E-3,.675E-5,0
